NOAA 15                 
1 25338U 98030A   24196.58964378  .00000399  00000+0  18308-3 0  9996
2 25338  98.5672 223.1429 0009244 241.1657 118.8596 14.26627175361096
NOAA 18                 
1 28654U 05018A   24196.53636420  .00000367  00000+0  21943-3 0  9997
2 28654  98.8739 273.2742 0013817 350.2205   9.8696 14.13252600987034
NOAA 19                 
1 33591U 09005A   24196.56246539  .00000323  00000+0  19761-3 0  9991
2 33591  99.0455 252.6495 0013361 211.3045 148.7332 14.13047040795494
METOP-B                 
1 38771U 12049A   24196.55492236 -.00000020  00000+0  10463-4 0  9990
2 38771  98.6264 253.1614 0001293  81.5492 278.5832 14.21447353613446
SARAL                   
1 39086U 13009A   24196.53174154  .00000262  00000+0  11311-3 0  9990
2 39086  98.5516  21.2673 0001788 167.2022 192.9207 14.32443552594996
METOP-C                 
1 43689U 18087A   24196.59291626  .00000245  00000+0  13196-3 0  9999
2 43689  98.7220 255.5476 0002343  40.6404 319.4948 14.21489721295018
ANGELS                  
1 44876U 19092D   24196.53273937  .00009500  00000+0  35503-3 0  9993
2 44876  97.4749  25.1374 0008857 215.5996 144.4653 15.27535027253530
OTB-3-GAZELLE           
1 54023U 22127A   24196.52648380  .00000381  00000+0  12871-3 0  9999
2 54023  98.3436 190.2243 0014018 144.4069 215.8058 14.42133660 93069
EOS-6 (OCEANSAT-3)      
1 54361U 22158A   24196.60790132  .00000704  00000+0  20557-3 0  9999
2 54361  98.3538 293.2690 0001916 100.5020 259.6388 14.46984209 86230
